[{"OBJECT_NAME":"DUPLEX","OBJECT_ID":"1998-067XS","EPOCH":"2026-03-23T03:09:54.959040","MEAN_MOTION":15.57057045,"ECCENTRICITY":0.00031297,"INCLINATION":51.6301,"RA_OF_ASC_NODE":2.1718,"ARG_OF_PERICENTER":170.5661,"MEAN_ANOMALY":189.539,"EPHEMERIS_TYPE":0,"CLASSIFICATION_TYPE":"U","NORAD_CAT_ID":66906,"ELEMENT_SET_NO":999,"REV_AT_EPOCH":1722,"BSTAR":0.00049885683,"MEAN_MOTION_DOT":0.00036468,"MEAN_MOTION_DDOT":0},{"OBJECT_NAME":"ISS OBJECT XT","OBJECT_ID":"1998-067XT","EPOCH":"2026-03-23T03:03:30.951648","MEAN_MOTION":15.73983745,"ECCENTRICITY":0.0005369,"INCLINATION":51.6254,"RA_OF_ASC_NODE":356.864,"ARG_OF_PERICENTER":166.1185,"MEAN_ANOMALY":193.9962,"EPHEMERIS_TYPE":0,"CLASSIFICATION_TYPE":"U","NORAD_CAT_ID":66907,"ELEMENT_SET_NO":999,"REV_AT_EPOCH":1729,"BSTAR":0.001687406,"MEAN_MOTION_DOT":0.00252347,"MEAN_MOTION_DDOT":0},{"OBJECT_NAME":"ISS OBJECT XU","OBJECT_ID":"1998-067XU","EPOCH":"2026-03-23T02:59:11.220288","MEAN_MOTION":15.74162534,"ECCENTRICITY":0.00056023,"INCLINATION":51.6246,"RA_OF_ASC_NODE":356.8387,"ARG_OF_PERICENTER":166.2607,"MEAN_ANOMALY":193.8545,"EPHEMERIS_TYPE":0,"CLASSIFICATION_TYPE":"U","NORAD_CAT_ID":66908,"ELEMENT_SET_NO":999,"REV_AT_EPOCH":1729,"BSTAR":0.0017375684,"MEAN_MOTION_DOT":0.00262204,"MEAN_MOTION_DDOT":0},{"OBJECT_NAME":"SILVERSAT","OBJECT_ID":"1998-067XV","EPOCH":"2026-03-23T03:48:38.455488","MEAN_MOTION":15.78521272,"ECCENTRICITY":0.00062414,"INCLINATION":51.6225,"RA_OF_ASC_NODE":355.5605,"ARG_OF_PERICENTER":171.9705,"MEAN_ANOMALY":188.1397,"EPHEMERIS_TYPE":0,"CLASSIFICATION_TYPE":"U","NORAD_CAT_ID":66909,"ELEMENT_SET_NO":999,"REV_AT_EPOCH":1731,"BSTAR":0.0017851023,"MEAN_MOTION_DOT":0.00329127,"MEAN_MOTION_DDOT":0},{"OBJECT_NAME":"ISS OBJECT XW","OBJECT_ID":"1998-067XW","EPOCH":"2026-03-23T03:07:01.684704","MEAN_MOTION":15.72839352,"ECCENTRICITY":0.00057814,"INCLINATION":51.6244,"RA_OF_ASC_NODE":356.8723,"ARG_OF_PERICENTER":166.1394,"MEAN_ANOMALY":193.9764,"EPHEMERIS_TYPE":0,"CLASSIFICATION_TYPE":"U","NORAD_CAT_ID":66910,"ELEMENT_SET_NO":999,"REV_AT_EPOCH":1729,"BSTAR":0.0015745779,"MEAN_MOTION_DOT":0.00223399,"MEAN_MOTION_DDOT":0},{"OBJECT_NAME":"ISS OBJECT XX","OBJECT_ID":"1998-067XX","EPOCH":"2026-03-23T02:54:37.918944","MEAN_MOTION":15.83698112,"ECCENTRICITY":0.00077498,"INCLINATION":51.62,"RA_OF_ASC_NODE":354.5306,"ARG_OF_PERICENTER":174.8625,"MEAN_ANOMALY":185.2459,"EPHEMERIS_TYPE":0,"CLASSIFICATION_TYPE":"U","NORAD_CAT_ID":66911,"ELEMENT_SET_NO":999,"REV_AT_EPOCH":1731,"BSTAR":0.0021091614,"MEAN_MOTION_DOT":0.00504349,"MEAN_MOTION_DDOT":0},{"OBJECT_NAME":"ISS OBJECT XY","OBJECT_ID":"1998-067XY","EPOCH":"2026-03-23T04:23:00.606624","MEAN_MOTION":15.66386367,"ECCENTRICITY":0.00040315,"INCLINATION":51.6273,"RA_OF_ASC_NODE":358.7506,"ARG_OF_PERICENTER":168.1265,"MEAN_ANOMALY":191.9827,"EPHEMERIS_TYPE":0,"CLASSIFICATION_TYPE":"U","NORAD_CAT_ID":66912,"ELEMENT_SET_NO":999,"REV_AT_EPOCH":1726,"BSTAR":0.0011004278,"MEAN_MOTION_DOT":0.00117705,"MEAN_MOTION_DDOT":0},{"OBJECT_NAME":"KNACKSAT-2","OBJECT_ID":"1998-067XZ","EPOCH":"2026-03-22T23:43:50.445984","MEAN_MOTION":15.52915753,"ECCENTRICITY":0.00098766,"INCLINATION":51.6322,"RA_OF_ASC_NODE":5.7163,"ARG_OF_PERICENTER":233.1676,"MEAN_ANOMALY":126.8409,"EPHEMERIS_TYPE":0,"CLASSIFICATION_TYPE":"U","NORAD_CAT_ID":67683,"ELEMENT_SET_NO":999,"REV_AT_EPOCH":685,"BSTAR":0.00078354342,"MEAN_MOTION_DOT":0.0004956,"MEAN_MOTION_DDOT":0},{"OBJECT_NAME":"CORAL","OBJECT_ID":"1998-067YA","EPOCH":"2026-03-23T04:36:54.989568","MEAN_MOTION":15.5657931,"ECCENTRICITY":0.00123273,"INCLINATION":51.631,"RA_OF_ASC_NODE":4.0749,"ARG_OF_PERICENTER":223.6063,"MEAN_ANOMALY":136.3956,"EPHEMERIS_TYPE":0,"CLASSIFICATION_TYPE":"U","NORAD_CAT_ID":67684,"ELEMENT_SET_NO":999,"REV_AT_EPOCH":689,"BSTAR":0.0013187356,"MEAN_MOTION_DOT":0.0009651,"MEAN_MOTION_DDOT":0},{"OBJECT_NAME":"GXIBA-1","OBJECT_ID":"1998-067YB","EPOCH":"2026-03-22T06:33:11.551104","MEAN_MOTION":15.53290377,"ECCENTRICITY":0.00116284,"INCLINATION":51.6327,"RA_OF_ASC_NODE":9.1857,"ARG_OF_PERICENTER":227.888,"MEAN_ANOMALY":132.1122,"EPHEMERIS_TYPE":0,"CLASSIFICATION_TYPE":"U","NORAD_CAT_ID":67685,"ELEMENT_SET_NO":999,"REV_AT_EPOCH":674,"BSTAR":0.00060489181,"MEAN_MOTION_DOT":0.00038654,"MEAN_MOTION_DDOT":0},{"OBJECT_NAME":"UITMSAT-2","OBJECT_ID":"1998-067YC","EPOCH":"2026-03-23T00:48:33.609312","MEAN_MOTION":15.54231876,"ECCENTRICITY":0.00087347,"INCLINATION":51.6323,"RA_OF_ASC_NODE":5.268,"ARG_OF_PERICENTER":200.8114,"MEAN_ANOMALY":159.2523,"EPHEMERIS_TYPE":0,"CLASSIFICATION_TYPE":"U","NORAD_CAT_ID":67686,"ELEMENT_SET_NO":999,"REV_AT_EPOCH":686,"BSTAR":0.001072261,"MEAN_MOTION_DOT":0.00071513,"MEAN_MOTION_DDOT":0},{"OBJECT_NAME":"HMU-SAT2","OBJECT_ID":"1998-067YD","EPOCH":"2026-03-23T04:15:55.528992","MEAN_MOTION":15.53181934,"ECCENTRICITY":0.00084072,"INCLINATION":51.633,"RA_OF_ASC_NODE":4.7294,"ARG_OF_PERICENTER":204.6429,"MEAN_ANOMALY":155.4161,"EPHEMERIS_TYPE":0,"CLASSIFICATION_TYPE":"U","NORAD_CAT_ID":67687,"ELEMENT_SET_NO":999,"REV_AT_EPOCH":680,"BSTAR":0.00077754307,"MEAN_MOTION_DOT":0.0004963,"MEAN_MOTION_DDOT":0},{"OBJECT_NAME":"LEOPARD","OBJECT_ID":"1998-067YE","EPOCH":"2026-03-23T04:01:13.342656","MEAN_MOTION":15.53876626,"ECCENTRICITY":0.00085648,"INCLINATION":51.633,"RA_OF_ASC_NODE":4.6613,"ARG_OF_PERICENTER":202.344,"MEAN_ANOMALY":157.7179,"EPHEMERIS_TYPE":0,"CLASSIFICATION_TYPE":"U","NORAD_CAT_ID":67688,"ELEMENT_SET_NO":999,"REV_AT_EPOCH":680,"BSTAR":0.00087575679,"MEAN_MOTION_DOT":0.00057458,"MEAN_MOTION_DDOT":0},{"OBJECT_NAME":"CREW DRAGON 12","OBJECT_ID":"2026-031A","EPOCH":"2026-03-23T04:41:36.951648","MEAN_MOTION":15.4848326,"ECCENTRICITY":0.00061926,"INCLINATION":51.6344,"RA_OF_ASC_NODE":5.5946,"ARG_OF_PERICENTER":222.9473,"MEAN_ANOMALY":137.1033,"EPHEMERIS_TYPE":0,"CLASSIFICATION_TYPE":"U","NORAD_CAT_ID":67796,"ELEMENT_SET_NO":999,"REV_AT_EPOCH":55834,"BSTAR":0.00032963634,"MEAN_MOTION_DOT":0.00017435,"MEAN_MOTION_DDOT":0},{"OBJECT_NAME":"PROGRESS-MS 33","OBJECT_ID":"2026-058A","EPOCH":"2026-03-23T01:13:34.369536","MEAN_MOTION":16.01170532,"ECCENTRICITY":0.00116217,"INCLINATION":51.6358,"RA_OF_ASC_NODE":6.8873,"ARG_OF_PERICENTER":152.2903,"MEAN_ANOMALY":207.8729,"EPHEMERIS_TYPE":0,"CLASSIFICATION_TYPE":"U","NORAD_CAT_ID":68319,"ELEMENT_SET_NO":999,"REV_AT_EPOCH":6,"BSTAR":0.00035870065,"MEAN_MOTION_DOT":0.00200487,"MEAN_MOTION_DDOT":2.8255529e-5},{"OBJECT_NAME":"SL-4 R/B","OBJECT_ID":"2026-058B","EPOCH":"2026-03-23T06:57:17.347968","MEAN_MOTION":16.31507626,"ECCENTRICITY":0.00189767,"INCLINATION":51.6527,"RA_OF_ASC_NODE":5.5513,"ARG_OF_PERICENTER":76.1047,"MEAN_ANOMALY":284.2086,"EPHEMERIS_TYPE":0,"CLASSIFICATION_TYPE":"U","NORAD_CAT_ID":68320,"ELEMENT_SET_NO":999,"REV_AT_EPOCH":13,"BSTAR":0.00073957373,"MEAN_MOTION_DOT":0.0427847,"MEAN_MOTION_DDOT":1.220443e-5}]
